ONEWEB-0456             
1 51646U 22012AA  24215.18014464  .00000665  00000+0  18680-2 0  9992
2 51646  87.8965 172.2938 0001798  79.5385 280.5944 13.10372670121052
ONEWEB-0457             
1 51647U 22012AB  24214.92782374 -.00000222  00000+0 -67304-3 0  9995
2 51647  87.8977 172.3700 0002278  87.0145 273.1243 13.10376319119732
ONEWEB-0458             
1 51648U 22012AC  24215.17849156  .00000715  00000+0  20129-2 0  9994
2 51648  87.8973 172.3365 0002211  77.6330 282.5045 13.10373705121029
ONEWEB-0461             
1 51649U 22012AD  24215.19545819  .00000027  00000+0  36410-4 0  9994
2 51649  87.9191 142.0649 0002126  78.0170 282.1200 13.17650628125105
ONEWEB-0463             
1 51650U 22012AE  24214.87394636  .00000062  00000+0  12678-3 0  9997
2 51650  87.9193 142.1776 0002159  77.8164 282.3209 13.17649635123551
ONEWEB-0464             
1 51651U 22012AF  24215.17516712  .00000582  00000+0  16299-2 0  9992
2 51651  87.8977 172.3259 0001772  74.2901 285.8422 13.10375651121046
ONEWEB-0468             
1 51652U 22012AG  24215.41088518  .00000722  00000+0  20312-2 0  9995
2 51652  87.8974 172.2721 0002026  79.4603 280.6752 13.10371971121046
ONEWEB-0473             
1 51653U 22012AH  24214.93779144  .00000253  00000+0  68848-3 0  9990
2 51653  87.8976 172.3689 0002099  77.8310 282.3052 13.10376723120995
ONEWEB-0474             
1 51654U 22012AJ  24215.38762644 -.00000157  00000+0 -48517-3 0  9994
2 51654  87.8968 172.2727 0001992  73.6855 286.4491 13.10376822121036
ONEWEB-0475             
1 51655U 22012AK  24214.80932124 -.00000052  00000+0 -16778-3 0  9991
2 51655  87.9194 142.1696 0002073  66.2244 293.9104 13.17649811123563
ONEWEB-0490             
1 54113U 22138A   24215.57036775  .00000092  00000+0  19629-3 0  9994
2 54113  87.9110  80.9834 0001686  77.8428 282.2894 13.19726421 87535
ONEWEB-0492             
1 54114U 22138B   24215.36818901  .00000084  00000+0  17680-3 0  9997
2 54114  87.9115  81.0293 0001552  75.2134 284.9171 13.19729992 87511
ONEWEB-0495             
1 54115U 22138C   24214.89117747 -.00000131  00000+0 -35833-3 0  9990
2 54115  87.9117  81.1361 0001623  52.2274 307.9005 13.19725517 86565
ONEWEB-0497             
1 54116U 22138D   24215.58616952  .00000079  00000+0  16397-3 0  9993
2 54116  87.9110  80.9835 0001697  78.3859 281.7464 13.19724580 87514
ONEWEB-0499             
1 54117U 22138E   24215.56879348  .00000098  00000+0  21286-3 0  9996
2 54117  87.9115  80.9901 0002163  71.3986 288.7382 13.19726017 87521
ONEWEB-0500             
1 54118U 22138F   24214.88959654 -.00000168  00000+0 -45148-3 0  9993
2 54118  87.9113  81.1205 0001692  81.0663 279.0661 13.19724871 86579
ONEWEB-0501             
1 54119U 22138G   24215.52615366  .00000051  00000+0  96200-4 0  9990
2 54119  87.9110  80.9911 0001670  62.5880 297.5423 13.19723634 87500
ONEWEB-0502             
1 54120U 22138H   24214.90539564  .00000014  00000+0  20829-5 0  9992
2 54120  87.9111  81.1038 0001844  69.3101 290.8229 13.19724570 86576
ONEWEB-0503             
1 54121U 22138J   24214.59107579  .00000131  00000+0  29534-3 0  9995
2 54121  87.9110  81.1729 0002262  79.6754 280.4633 13.19724444 87391
ONEWEB-0504             
1 54122U 22138K   24215.56405134 -.00000207  00000+0 -54928-3 0  9993
2 54122  87.9112  80.9856 0001959  70.2399 289.8945 13.19724924 87534
ONEWEB-0505             
1 54123U 22138L   24215.56088697 -.00000123  00000+0 -33915-3 0  9995
2 54123  87.9110  80.9808 0001832  57.1569 302.9740 13.19725623 87518
ONEWEB-0506             
1 54124U 22138M   24215.53562148 -.00000031  00000+0 -10920-3 0  9990
2 54124  87.9109  80.9825 0001752  73.2953 286.8372 13.19723244 87500
ONEWEB-0507             
1 54125U 22138N   24215.55615508  .00000063  00000+0  12481-3 0  9999
2 54125  87.9120  81.0036 0001596  72.9904 287.1404 13.19724006 87550
ONEWEB-0508             
1 54126U 22138P   24215.55299476 -.00000196  00000+0 -52086-3 0  9996
2 54126  87.9116  80.9963 0001466  66.1960 293.9327 13.19724687 87538
ONEWEB-0509             
1 54127U 22138Q   24214.92119108  .00000029  00000+0  40812-4 0  9998
2 54127  87.9109  81.1063 0001788  75.2915 284.8415 13.19723788 87429
ONEWEB-0510             
1 54128U 22138R   24215.57794973 -.00000174  00000+0 -46042-3 0  9993
2 54128  87.9184  50.4242 0001710 102.3625 257.7700 13.20771627 89948
ONEWEB-0511             
1 54129U 22138S   24215.52456731  .00000066  00000+0  13211-3 0  9996
2 54129  87.9109  80.9891 0002117  75.2212 284.9155 13.19724269 87533
ONEWEB-0512             
1 54130U 22138T   24214.91012883 -.00000227  00000+0 -59892-3 0  9992
2 54130  87.9118  81.1315 0001830  64.8803 295.2520 13.19725021 86559
ONEWEB-0513             
1 54131U 22138U   24215.56325643  .00000055  00000+0  10592-3 0  9997
2 54131  87.9115  80.9943 0002022  63.9477 296.1864 13.19724303 87398
ONEWEB-0514             
1 54132U 22138V   24215.53245911 -.00000022  00000+0 -88066-4 0  9992
2 54132  87.9110  80.9944 0001859  81.3596 278.7748 13.19726896 87529
ONEWEB-0515             
1 54133U 22138W   24215.11079959  .00000151  00000+0  33939-3 0  9993
2 54133  87.9179  50.4966 0001747 121.0180 239.1126 13.20771878 89871
ONEWEB-0516             
1 54134U 22138X   24215.58301005  .00000112  00000+0  24858-3 0  9992
2 54134  87.9119  80.9985 0001682  78.7610 281.3712 13.19725206 87532
ONEWEB-0517             
1 54135U 22138Y   24215.18338835  .00000118  00000+0  26121-3 0  9991
2 54135  87.9112  81.0601 0002255  78.4708 281.6677 13.19726766 87484
ONEWEB-0518             
1 54136U 22138Z   24215.12652384 -.00000205  00000+0 -54416-3 0  9991
2 54136  87.9118  81.0875 0001885  78.5547 281.5798 13.19724712 87475
ONEWEB-0519             
1 54137U 22138AA  24215.53088233  .00000109  00000+0  23979-3 0  9994
2 54137  87.9111  80.9860 0001997  69.3673 290.7674 13.19724048 87537
ONEWEB-0520             
1 54138U 22138AB  24215.56563107  .00000028  00000+0  37853-4 0  9993
2 54138  87.9111  80.9819 0001635  64.1461 295.9840 13.19723788 87520
ONEWEB-0521             
1 54139U 22138AC  24215.37135535  .00000054  00000+0  10188-3 0  9993
2 54139  87.9109  81.0130 0002046  83.1463 276.9903 13.19723798 87470
ONEWEB-0522             
1 54140U 22138AD  24214.89591353 -.00000186  00000+0 -49698-3 0  9991
2 54140  87.9109  81.1098 0001708  79.5095 280.6230 13.19724835 86556
ONEWEB-0523             
1 54141U 22138AE  24215.55271095  .00000107  00000+0  23011-3 0  9996
2 54141  87.9182  50.4369 0002307 108.5609 251.5775 13.20770234 89930
ONEWEB-0524             
1 54142U 22138AF  24214.93561856  .00000050  00000+0  91331-4 0  9993
2 54142  87.9181  50.5633 0001363 125.0093 235.1169 13.20771562 88981
ONEWEB-0525             
1 54143U 22138AG  24214.91487309 -.00000026  00000+0 -96481-4 0  9998
2 54143  87.9113  81.1160 0001735  70.1113 290.0206 13.19723908 86572
ONEWEB-0526             
1 54144U 22138AH  24215.55457484  .00000035  00000+0  55173-4 0  9992
2 54144  87.9110  80.9825 0001709  77.5774 282.5550 13.19726746 87505
ONEWEB-0529             
1 54145U 22138AJ  24215.55774058  .00000056  00000+0  10805-3 0  9997
2 54145  87.9116  81.0004 0001653  70.0839 290.0472 13.19725924 87527
ONEWEB-0531             
1 54146U 22138AK  24215.52746713 -.00000039  00000+0 -12829-3 0  9993
2 54146  87.9182  50.4364 0002102 118.7611 241.3733 13.20771559 89931
ONEWEB-0535             
1 54147U 22138AL  24215.13600579  .00000091  00000+0  19514-3 0  9994
2 54147  87.9109  81.0640 0001856  89.3634 270.7711 13.19724548 87485
ONEWEB-0536             
1 54148U 22138AM  24214.90878343 -.00000024  00000+0 -90652-4 0  9996
2 54148  87.9182  50.6086 0002545 108.1762 251.9649 13.20769186 89843
ONEWEB-0527             
1 54642U 22166A   24215.17862966  .00000050  00000+0  88583-4 0  9997
2 54642  87.9294  20.1617 0001722  94.5266 265.6064 13.21826975 81623
ONEWEB-0528             
1 54643U 22166B   24215.48772229  .00000094  00000+0  19505-3 0  9999
2 54643  87.9298  20.0886 0001675  89.6622 270.4704 13.21824530 81678
ONEWEB-0539             
1 54644U 22166C   24215.52398501 -.00000087  00000+0 -24248-3 0  9996
2 54644  87.9298  20.0843 0001972  87.8952 272.2408 13.21827103 81678
ONEWEB-0540             
1 54645U 22166D   24215.51847539  .00000002  00000+0 -27417-4 0  9994
2 54645  87.9293  20.1011 0001983  85.2320 274.9040 13.21827494 81680
ONEWEB-0542             
1 54646U 22166E   24214.92789815 -.00000026  00000+0 -94965-4 0  9990
2 54646  87.9297  20.2021 0002295  89.4854 270.6543 13.21826563 81140
ONEWEB-0545             
1 54647U 22166F   24215.50033921  .00000039  00000+0  61991-4 0  9991
2 54647  87.9289  20.1048 0002163  81.1496 278.9883 13.21827543 81658
ONEWEB-0580             
1 54648U 22166G   24214.94365684  .00000627  00000+0  14855-2 0  9991
2 54648  87.9295  20.1872 0002362  90.3569 269.7835 13.21825127 81151
ONEWEB-0582             
1 54649U 22166H   24215.21332374 -.00000012  00000+0 -60842-4 0  9992
2 54649  87.9292  20.1698 0002561  90.8834 269.2594 13.21827292 81631
ONEWEB-0583             
1 54650U 22166J   24214.99726449 -.00000028  00000+0 -99695-4 0  9993
2 54650  87.9290  20.2124 0001848  89.1781 270.9565 13.21828003 81622
ONEWEB-0584             
1 54651U 22166K   24214.94207984  .00000052  00000+0  95096-4 0  9993
2 54651  87.9295  20.1914 0002157  89.1774 270.9607 13.21827340 81125
ONEWEB-0585             
1 54652U 22166L   24214.89160638 -.00000198  00000+0 -51154-3 0  9991
2 54652  87.9298  20.2110 0001726  93.5030 266.6302 13.21825351 81127
ONEWEB-0586             
1 54653U 22166M   24215.20702135  .00000019  00000+0  15119-4 0  9994
2 54653  87.9292  20.1604 0002042  88.5005 271.6363 13.21825373 81630
ONEWEB-0587             
1 54654U 22166N   24215.51926514 -.00000005  00000+0 -43773-4 0  9992
2 54654  87.9291  20.0528 0001565  95.2617 264.8695 13.21824981 81824
